HAWK-2B                 
1 47508U 21006CZ  26068.67629241  .00009474  00000+0  29651-3 0  9991
2 47508  97.2334 114.1140 0007102 185.9063 174.2098 15.33301353284246
STARLINK-34896          
1 66288U 25247Z   26068.61256847  .00027604  00000+0  94151-3 0  9992
2 66288  53.1588 191.6684 0001243  79.1910 280.9231 15.30171297 21020
